[{"OBJECT_NAME":"LEMUR-1","OBJECT_ID":"2014-033AL","EPOCH":"2026-03-09T21:47:45.945024","MEAN_MOTION":14.84803636,"ECCENTRICITY":0.00494996,"INCLINATION":97.7719,"RA_OF_ASC_NODE":221.0277,"ARG_OF_PERICENTER":45.162,"MEAN_ANOMALY":315.3601,"EPHEMERIS_TYPE":0,"CLASSIFICATION_TYPE":"U","NORAD_CAT_ID":40044,"ELEMENT_SET_NO":999,"REV_AT_EPOCH":63073,"BSTAR":0.00036816661,"MEAN_MOTION_DOT":3.139e-5,"MEAN_MOTION_DDOT":0},{"OBJECT_NAME":"COSMOS 886","OBJECT_ID":"1976-126A","EPOCH":"2026-03-09T21:29:29.141952","MEAN_MOTION":12.56605843,"ECCENTRICITY":0.10919772,"INCLINATION":65.8338,"RA_OF_ASC_NODE":276.7417,"ARG_OF_PERICENTER":297.7165,"MEAN_ANOMALY":51.7232,"EPHEMERIS_TYPE":0,"CLASSIFICATION_TYPE":"U","NORAD_CAT_ID":9634,"ELEMENT_SET_NO":999,"REV_AT_EPOCH":26773,"BSTAR":3.274207e-5,"MEAN_MOTION_DOT":-1.3e-7,"MEAN_MOTION_DDOT":0}]
